[{"OBJECT_NAME":"SL-16 R/B","OBJECT_ID":"1993-059B","EPOCH":"2026-03-18T12:16:16.723488","MEAN_MOTION":14.17233072,"ECCENTRICITY":0.00180177,"INCLINATION":70.9931,"RA_OF_ASC_NODE":352.5247,"ARG_OF_PERICENTER":203.6618,"MEAN_ANOMALY":156.3679,"EPHEMERIS_TYPE":0,"CLASSIFICATION_TYPE":"U","NORAD_CAT_ID":22803,"ELEMENT_SET_NO":999,"REV_AT_EPOCH":68078,"BSTAR":0.00014353854,"MEAN_MOTION_DOT":2.42e-6,"MEAN_MOTION_DDOT":0},{"OBJECT_NAME":"ARIANE 40 R/B","OBJECT_ID":"1993-061H","EPOCH":"2026-03-18T10:15:25.085088","MEAN_MOTION":14.32865565,"ECCENTRICITY":0.00096036,"INCLINATION":98.49,"RA_OF_ASC_NODE":146.1419,"ARG_OF_PERICENTER":256.1559,"MEAN_ANOMALY":103.8557,"EPHEMERIS_TYPE":0,"CLASSIFICATION_TYPE":"U","NORAD_CAT_ID":22830,"ELEMENT_SET_NO":999,"REV_AT_EPOCH":69535,"BSTAR":9.0252677e-5,"MEAN_MOTION_DOT":2.03e-6,"MEAN_MOTION_DDOT":0},{"OBJECT_NAME":"COSMOS 2278","OBJECT_ID":"1994-023A","EPOCH":"2026-03-18T13:54:37.779552","MEAN_MOTION":14.14378986,"ECCENTRICITY":0.00086589,"INCLINATION":71.0543,"RA_OF_ASC_NODE":156.5005,"ARG_OF_PERICENTER":357.7867,"MEAN_ANOMALY":2.3216,"EPHEMERIS_TYPE":0,"CLASSIFICATION_TYPE":"U","NORAD_CAT_ID":23087,"ELEMENT_SET_NO":999,"REV_AT_EPOCH":64606,"BSTAR":-5.558744e-5,"MEAN_MOTION_DOT":-1.54e-6,"MEAN_MOTION_DDOT":0},{"OBJECT_NAME":"SL-16 R/B","OBJECT_ID":"1994-023B","EPOCH":"2026-03-18T14:55:48.703872","MEAN_MOTION":14.15010041,"ECCENTRICITY":0.0005534,"INCLINATION":70.9992,"RA_OF_ASC_NODE":52.1263,"ARG_OF_PERICENTER":276.9055,"MEAN_ANOMALY":83.1438,"EPHEMERIS_TYPE":0,"CLASSIFICATION_TYPE":"U","NORAD_CAT_ID":23088,"ELEMENT_SET_NO":999,"REV_AT_EPOCH":64735,"BSTAR":1.0774761e-5,"MEAN_MOTION_DOT":-2.7e-7,"MEAN_MOTION_DDOT":0},{"OBJECT_NAME":"SL-16 R/B","OBJECT_ID":"1994-074B","EPOCH":"2026-03-18T12:53:36.525984","MEAN_MOTION":14.79418188,"ECCENTRICITY":0.00064725,"INCLINATION":97.7097,"RA_OF_ASC_NODE":107.9964,"ARG_OF_PERICENTER":179.7331,"MEAN_ANOMALY":341.52,"EPHEMERIS_TYPE":0,"CLASSIFICATION_TYPE":"U","NORAD_CAT_ID":23343,"ELEMENT_SET_NO":999,"REV_AT_EPOCH":68855,"BSTAR":6.470796e-5,"MEAN_MOTION_DOT":4.34e-6,"MEAN_MOTION_DDOT":0},{"OBJECT_NAME":"SL-16 R/B","OBJECT_ID":"1994-077B","EPOCH":"2026-03-18T11:00:49.757472","MEAN_MOTION":14.15564962,"ECCENTRICITY":0.00025816,"INCLINATION":70.985,"RA_OF_ASC_NODE":334.0419,"ARG_OF_PERICENTER":201.5319,"MEAN_ANOMALY":158.5696,"EPHEMERIS_TYPE":0,"CLASSIFICATION_TYPE":"U","NORAD_CAT_ID":23405,"ELEMENT_SET_NO":999,"REV_AT_EPOCH":61747,"BSTAR":0.00018631641,"MEAN_MOTION_DOT":3.17e-6,"MEAN_MOTION_DDOT":0},{"OBJECT_NAME":"ARIANE 40+ R/B","OBJECT_ID":"1995-021B","EPOCH":"2026-03-18T15:51:13.428576","MEAN_MOTION":14.39778808,"ECCENTRICITY":0.00079188,"INCLINATION":98.448,"RA_OF_ASC_NODE":149.021,"ARG_OF_PERICENTER":113.0525,"MEAN_ANOMALY":40.4754,"EPHEMERIS_TYPE":0,"CLASSIFICATION_TYPE":"U","NORAD_CAT_ID":23561,"ELEMENT_SET_NO":999,"REV_AT_EPOCH":62053,"BSTAR":9.6712952e-5,"MEAN_MOTION_DOT":2.6e-6,"MEAN_MOTION_DDOT":0},{"OBJECT_NAME":"SL-16 R/B","OBJECT_ID":"1995-058B","EPOCH":"2026-03-18T11:11:29.683392","MEAN_MOTION":14.15500409,"ECCENTRICITY":0.00103825,"INCLINATION":71.0222,"RA_OF_ASC_NODE":161.83,"ARG_OF_PERICENTER":109.7791,"MEAN_ANOMALY":250.4453,"EPHEMERIS_TYPE":0,"CLASSIFICATION_TYPE":"U","NORAD_CAT_ID":23705,"ELEMENT_SET_NO":999,"REV_AT_EPOCH":56909,"BSTAR":7.4596987e-5,"MEAN_MOTION_DOT":9.8e-7,"MEAN_MOTION_DDOT":0},{"OBJECT_NAME":"SL-16 R/B","OBJECT_ID":"1996-051B","EPOCH":"2026-03-18T10:50:59.572032","MEAN_MOTION":14.12417967,"ECCENTRICITY":0.00143365,"INCLINATION":70.7599,"RA_OF_ASC_NODE":156.6936,"ARG_OF_PERICENTER":134.3583,"MEAN_ANOMALY":225.8714,"EPHEMERIS_TYPE":0,"CLASSIFICATION_TYPE":"U","NORAD_CAT_ID":24298,"ELEMENT_SET_NO":999,"REV_AT_EPOCH":52288,"BSTAR":7.5165562e-5,"MEAN_MOTION_DOT":9.0e-7,"MEAN_MOTION_DDOT":0},{"OBJECT_NAME":"ORBVIEW 2 (SEASTAR)","OBJECT_ID":"1997-037A","EPOCH":"2026-03-18T09:49:35.166720","MEAN_MOTION":14.35501143,"ECCENTRICITY":0.00028406,"INCLINATION":98.8582,"RA_OF_ASC_NODE":241.9528,"ARG_OF_PERICENTER":53.7195,"MEAN_ANOMALY":306.4252,"EPHEMERIS_TYPE":0,"CLASSIFICATION_TYPE":"U","NORAD_CAT_ID":24883,"ELEMENT_SET_NO":999,"REV_AT_EPOCH":50972,"BSTAR":0.0001018588,"MEAN_MOTION_DOT":2.46e-6,"MEAN_MOTION_DDOT":0},{"OBJECT_NAME":"SL-16 R/B","OBJECT_ID":"1998-043G","EPOCH":"2026-03-18T10:21:51.350976","MEAN_MOTION":14.26051804,"ECCENTRICITY":0.000976,"INCLINATION":98.8269,"RA_OF_ASC_NODE":30.8579,"ARG_OF_PERICENTER":355.6941,"MEAN_ANOMALY":4.4153,"EPHEMERIS_TYPE":0,"CLASSIFICATION_TYPE":"U","NORAD_CAT_ID":25400,"ELEMENT_SET_NO":999,"REV_AT_EPOCH":44023,"BSTAR":4.1473957e-5,"MEAN_MOTION_DOT":5.4e-7,"MEAN_MOTION_DDOT":0},{"OBJECT_NAME":"SL-16 R/B","OBJECT_ID":"1998-045B","EPOCH":"2026-03-18T11:21:01.578816","MEAN_MOTION":14.16194741,"ECCENTRICITY":0.00073421,"INCLINATION":71.012,"RA_OF_ASC_NODE":163.1046,"ARG_OF_PERICENTER":354.2052,"MEAN_ANOMALY":5.8985,"EPHEMERIS_TYPE":0,"CLASSIFICATION_TYPE":"U","NORAD_CAT_ID":25407,"ELEMENT_SET_NO":999,"REV_AT_EPOCH":42834,"BSTAR":0.00010103109,"MEAN_MOTION_DOT":1.52e-6,"MEAN_MOTION_DDOT":0},{"OBJECT_NAME":"ISS (ZARYA)","OBJECT_ID":"1998-067A","EPOCH":"2026-03-18T08:31:19.348320","MEAN_MOTION":15.48355497,"ECCENTRICITY":0.00062405,"INCLINATION":51.634,"RA_OF_ASC_NODE":29.52,"ARG_OF_PERICENTER":204.1942,"MEAN_ANOMALY":155.8754,"EPHEMERIS_TYPE":0,"CLASSIFICATION_TYPE":"U","NORAD_CAT_ID":25544,"ELEMENT_SET_NO":999,"REV_AT_EPOCH":55767,"BSTAR":0.0001519049,"MEAN_MOTION_DOT":7.746e-5,"MEAN_MOTION_DDOT":0},{"OBJECT_NAME":"CZ-4B R/B","OBJECT_ID":"1999-025C","EPOCH":"2026-03-18T13:47:32.338176","MEAN_MOTION":14.18267128,"ECCENTRICITY":0.00363115,"INCLINATION":98.6607,"RA_OF_ASC_NODE":121.6451,"ARG_OF_PERICENTER":320.696,"MEAN_ANOMALY":203.2121,"EPHEMERIS_TYPE":0,"CLASSIFICATION_TYPE":"U","NORAD_CAT_ID":25732,"ELEMENT_SET_NO":999,"REV_AT_EPOCH":38942,"BSTAR":4.0101663e-5,"MEAN_MOTION_DOT":4.0e-7,"MEAN_MOTION_DDOT":0},{"OBJECT_NAME":"OKEAN-O","OBJECT_ID":"1999-039A","EPOCH":"2026-03-18T13:46:55.529184","MEAN_MOTION":14.80349812,"ECCENTRICITY":0.0001018,"INCLINATION":97.9422,"RA_OF_ASC_NODE":137.3747,"ARG_OF_PERICENTER":75.0124,"MEAN_ANOMALY":285.1201,"EPHEMERIS_TYPE":0,"CLASSIFICATION_TYPE":"U","NORAD_CAT_ID":25860,"ELEMENT_SET_NO":999,"REV_AT_EPOCH":43570,"BSTAR":8.8399486e-5,"MEAN_MOTION_DOT":6.22e-6,"MEAN_MOTION_DDOT":0},{"OBJECT_NAME":"DELTA 2 R/B","OBJECT_ID":"1999-041E","EPOCH":"2026-03-18T12:04:30.215136","MEAN_MOTION":14.11862228,"ECCENTRICITY":0.05025796,"INCLINATION":51.761,"RA_OF_ASC_NODE":266.0749,"ARG_OF_PERICENTER":14.4288,"MEAN_ANOMALY":347.0412,"EPHEMERIS_TYPE":0,"CLASSIFICATION_TYPE":"U","NORAD_CAT_ID":25876,"ELEMENT_SET_NO":999,"REV_AT_EPOCH":36427,"BSTAR":0.00015027652,"MEAN_MOTION_DOT":6.9e-6,"MEAN_MOTION_DDOT":0}]
